#cP2011  8 28  0  0  0.00000000      96 d     IGS08 FIT AIUB
## 1651      0.00000000   900.00000000 55801 0.0000000000000
+   55   G01G02G03G04G05G06G07G08G09G10G11G12G13G14G15G16G17
+        G18G19G20G21G22G23G24G25G26G27G28G29G30G31G32R01R02
+        R03R04R05R06R07R08R09R10R11R12R13R15R16R17R18R19R20
+        R21R22R23R24  0  0  0  0  0  0  0  0  0  0  0  0  0
+          0  0  0  0  0  0  0  0  0  0  0  0  0  0  0  0  0
++        10  5  5  5  5  5  5  9  5  5  5  5  5  5  5  5  5
++         5  6  5  5  5  5  5  5  5 10  5  5 10  5  5  5  5
++         6 10  5  5  5  5  5  5  5  5  5  5  5  6  6  6  7
++         6  6  6  6  0  0  0  0  0  0  0  0  0  0  0  0  0
++         0  0  0  0  0  0  0  0  0  0  0  0  0  0  0  0  0
%c M  cc GPS ccc cccc cccc cccc cccc ccccc ccccc ccccc ccccc
%c cc cc ccc ccc cccc cccc cccc cccc ccccc ccccc ccccc ccccc
%f  1.2500000  1.025000000  0.00000000000  0.000000000000000
%f  0.0000000  0.000000000  0.00000000000  0.000000000000000
%i    0    0    0    0      0      0      0      0         0
%i    0    0    0    0      0      0      0      0         0
/* Center for Orbit Determination in Europe (CODE)          
/* Rapid GNSS orbits and GPS clocks for year-day 11240      
/* Note: Last day of a 3-day arc GPS/GLONASS solution       
/* PCV:IGS08      OL/AL:FES2004  NONE     YN ORB:CoN CLK:CoN
*  2011  8 28  9  0  0.00000000
PG01 -15001.000901   2818.728642  21728.639327     -8.650207
PG02  14474.986491  19402.936274 -11412.414299    353.306632
PG03 -21378.459004 -11411.400692 -11657.371385    760.689237
PG04   5755.518386  25656.014368   1824.223976    214.459294
PG05  13042.434963   8541.587406 -21522.943943   -210.212027
PG06 -17640.418900 -14072.234396 -14059.253717    -84.992113
PG07  -7956.180042  17645.214048 -18071.862128     24.055682
PG08  -3083.988506  23495.913042 -11344.101250      9.016486
PG09  15216.191054   1861.774979  21135.926862    102.000511
PG10  -2917.979846  20083.130879 -17152.061060    -11.324565
PG11 -18961.141867  -3256.162796  18093.927702   -180.832642
PG12  21394.059607  -8779.137955  12915.256264     18.701317
PG13 -18204.394666   6460.560181 -18401.879846    254.280499
PG14  -2243.627795 -15772.125054  21449.281548    169.349318
PG15  26182.467379   3915.108674   3105.119160   -108.746601
PG16 -13634.036961  -7213.696507 -21649.544746   -194.392908
PG17   3290.481643  16193.684600  20982.322797    177.496837
PG18  15882.378072 -20591.877224   4635.161441    154.492965
PG19 -25429.706399  -8292.896826    838.336362   -177.713556
PG20 -21265.493641  11111.777018  11177.807812     52.242131
PG21   6247.539013 -20236.111348 -15221.578867   -167.633851
PG22   5218.175425 -21152.367466  15297.091682    144.971379
PG23 -24365.900026   1262.160348 -10912.924206    280.572977
PG24 -15677.989477    538.483408  21496.701176    419.101073
PG25  19552.513160 -17745.963568   2695.491983     16.057221
PG26  22000.935974  13245.675106  -8126.294515   -138.190443
PG27  16609.381300   8146.745506  19841.942644    299.394153
PG28  -8904.666817  21093.694214  13763.585387     63.010863
PG29  18094.500072  -7533.828863 -17836.578957    234.948712
PG30  17301.031830 -20099.892153   1362.341162     91.603398
PG31  -7267.604405 -25408.032304   -737.626504    132.983003
PG32 -20385.000166   1585.366879  16983.367494   -318.595477
PR01  12185.779296   4330.795603 -21978.733814 999999.999999
PR02  21595.900234  -9013.461953 -10149.326618 999999.999999
PR03   5959.330813 -18181.465534  16897.807362 999999.999999
PR04 -12566.287313   5311.867662  21554.182454 999999.999999
PR05 -12100.936700  -4412.150692  22016.042094 999999.999999
PR06 -21460.519241   8562.481950  10840.287805 999999.999999
PR07 -16225.847442  17981.087576  -8053.071714 999999.999999
PR08  -4194.381340  14836.248053 -20310.962456 999999.999999
PR09 -10722.198573   1340.205706 -23131.960391 999999.999999
PR10  -6015.673457  18034.728264 -16977.364359 999999.999999
PR11   2072.169539  25458.694388   -435.835865 999999.999999
PR12   8973.787897  17027.174617  16604.771412 999999.999999
PR13  10552.000000  -1111.679214  23174.938660 999999.999999
PR15  -3162.527168 -25192.865115  -1861.664234 999999.999999
PR16  -9046.255216 -17115.268536 -16708.704721 999999.999999
PR17   9852.250293  -6904.461182 -22479.661352 999999.999999
PR18  -8238.877332 -14097.519502 -19616.579520 999999.999999
PR19 -21138.831943 -13126.119327  -5616.017516 999999.999999
PR20 -21962.183587  -4212.868134  12333.924993 999999.999999
PR21 -10074.309183   6861.759837  22387.735125 999999.999999
PR22   7656.729364  13933.126984  19895.940364 999999.999999
PR23  21297.083058  12891.894976   5558.347291 999999.999999
PR24  22248.662848   4361.839109 -11713.416698 999999.999999
*  2011  8 28  9 15  0.00000000
PG01 -15733.368853    461.125215  21385.522530     -8.652284
PG02  14609.361708  20584.259430  -8962.704330    353.308097
PG03 -19966.455058 -11529.893770 -13887.011296    760.693581
PG04   5307.802693  25379.961203   4621.666738    214.469334
PG05  11381.583432  10369.997284 -21651.703479   -210.216607
PG06 -15886.396251 -14002.256453 -16037.344153    -84.983657
PG07  -8698.693976  15614.792897 -19557.932511     24.057333
PG08  -3555.828986  22107.382974 -13782.355292      9.017613
PG09  15938.192647   4234.532678  20264.096594    102.003008
PG10  -4338.837129  21264.252446 -15268.803511    -11.325568
PG11 -19870.628310  -5125.934510  16687.184716   -180.835923
PG12  20410.769957  -7495.710751  15141.199892     18.703425
PG13 -20054.952655   5776.720368 -16611.303726    254.278917
PG14    113.144415 -15129.729592  22012.883825    169.350991
PG15  26316.857314   4222.964754    291.924051   -108.744927
PG16 -11892.677259  -8995.640555 -21979.725834   -194.395110
PG17    951.098448  15641.280593  21611.950246    177.495593
PG18  16378.640853 -20591.600110   1849.909956    154.494637
PG19 -25300.244451  -8494.276473  -1992.487523   -177.717172
PG20 -20551.001019   9832.181677  13457.823041     52.243012
PG21   7066.026107 -18449.338446 -17034.234012   -167.635886
PG22   6519.377287 -22144.654075  13218.445554    144.970888
PG23 -25385.931411    819.091333  -8365.023623    280.570330
PG24 -16243.531624  -1819.346001  21027.915625    419.103963
PG25  19417.614561 -17232.101107   5509.607496     16.058803
PG26  21018.029812  13074.784114 -10740.370595   -138.201992
PG27  17242.299742  10094.241108  18328.853707    299.397242
PG28 -10001.112930  21934.773684  11378.641811     63.013296
PG29  19939.809554  -6878.347842 -16047.394705    234.951596
PG30  17300.925404 -19651.939593   4184.443379     91.600951
PG31  -7043.783180 -25412.402557   2167.824324    132.988147
PG32 -19021.758805    103.057500  18625.018311   -318.601779
PR01   9949.945593   5948.452070 -22712.753977 999999.999999
PR02  20387.621176  -8251.406326 -12915.527042 999999.999999
PR03   6097.504402 -15964.982517  18952.376043 999999.999999
PR04 -14959.931730   4357.635216  20195.685558 999999.999999
PR05  -9865.541919  -6033.272775  22734.769659 999999.999999
PR06 -20181.121619   7760.716879  13555.770266 999999.999999
PR07 -16789.669105  18559.818054  -5009.812091 999999.999999
PR08  -6084.365429  16323.191352 -18623.226024 999999.999999
PR09 -11021.886780  -1484.040183 -22974.627322 999999.999999
PR10  -6160.664000  15811.739615 -19027.991490 999999.999999
PR11   2235.835901  25185.623877  -3651.128880 999999.999999
PR12   9285.666333  18919.657217  14202.326059 999999.999999
PR13  10911.016449   1721.007677  22969.006588 999999.999999
PR15  -3370.697375 -25196.678159   1386.511678 999999.999999
PR16  -9374.137163 -18996.328068 -14328.450745 999999.999999
PR17  12350.891514  -5833.757101 -21522.307797 999999.999999
PR18  -5962.478100 -13024.987053 -21113.524681 999999.999999
PR19 -20395.407879 -12626.649531  -8677.048423 999999.999999
PR20 -23252.061802  -4622.725896   9501.241641 999999.999999
PR21 -12573.440880   5825.550097  21387.423075 999999.999999
PR22   5340.921235  12866.928033  21331.818333 999999.999999
PR23  20551.289269  12408.486286   8618.457109 999999.999999
PR24  23466.352280   4731.559413  -8834.366250 999999.999999
EOF
